{"type": "FeatureCollection", "features": [ {"type": "Feature", "properties": {"norad_id": 34058, "name": "COSMOS 2251 DEB", "group": "cosmos-2251-debris", "lat": 12.357778851745016, "lon": -168.87222291350866, "alt_km": 1327.9645749884849, "timestamp": "2025-12-06T22:38:43.122673+00:00", "meta": {"OBJECT_NAME": "COSMOS 2251 DEB", "OBJECT_ID": "1993-036JV", "EPOCH": "2025-12-06T15:52:06.837600", "MEAN_MOTION": 13.56063284, "ECCENTRICITY": 0.03782198, "INCLINATION": 73.932, "RA_OF_ASC_NODE": 187.9651, "ARG_OF_PERICENTER": 184.3616, "MEAN_ANOMALY": 251.3752, "EPHEMERIS_TYPE": 0, "CLASSIFICATION_TYPE": "U", "NORAD_CAT_ID": 34058, "ELEMENT_SET_NO": 999, "REV_AT_EPOCH": 83060, "BSTAR": 0.0009180272, "MEAN_MOTION_DOT": 9.98e-06, "MEAN_MOTION_DDOT": 0}, "tle": {"line1": "1 34058U 93036JV  25340.66119025  .00000998  00000+0  91803-3 0  9994", "line2": "2 34058  73.9320 187.9651 0378219 184.3616 251.3752 13.56063284830602"}}, "geometry": {"type": "Point", "coordinates": [-168.87222291350866, 12.357778851745016]}}, {"type": "Feature", "properties": {"norad_id": 34059, "name": "COSMOS 2251 DEB", "group": "cosmos-2251-debris", "lat": 14.791760544367776, "lon": -158.4548948956856, "alt_km": 719.1577394120432, "timestamp": "2025-12-06T22:38:43.122683+00:00", "meta": {"OBJECT_NAME": "COSMOS 2251 DEB", "OBJECT_ID": "1993-036JW", "EPOCH": "2025-12-06T16:13:35.223168", "MEAN_MOTION": 14.5289439, "ECCENTRICITY": 0.00188602, "INCLINATION": 74.0372, "RA_OF_ASC_NODE": 197.7148, "ARG_OF_PERICENTER": 275.4848, "MEAN_ANOMALY": 141.493, "EPHEMERIS_TYPE": 0, "CLASSIFICATION_TYPE": "U", "NORAD_CAT_ID": 34059, "ELEMENT_SET_NO": 999, "REV_AT_EPOCH": 88371, "BSTAR": 0.0012293858, "MEAN_MOTION_DOT": 5.049e-05, "MEAN_MOTION_DDOT": 0}, "tle": {"line1": "1 34059U 93036JW  25340.67610212  .00005049  00000+0  12294-2 0  9998", "line2": "2 34059  74.0372 197.7148 0018860 275.4848 141.4930 14.52894390883718"}}, "geometry": {"type": "Point", "coordinates": [-158.4548948956856, 14.791760544367776]}}, {"type": "Feature", "properties": {"norad_id": 34061, "name": "COSMOS 2251 DEB", "group": "cosmos-2251-debris", "lat": -73.02780785725248, "lon": 163.77427065953304, "alt_km": 763.745117275851, "timestamp": "2025-12-06T22:38:43.122693+00:00", "meta": {"OBJECT_NAME": "COSMOS 2251 DEB", "OBJECT_ID": "1993-036JY", "EPOCH": "2025-12-06T13:55:22.895040", "MEAN_MOTION": 14.40335673, "ECCENTRICITY": 0.0020278, "INCLINATION": 74.0392, "RA_OF_ASC_NODE": 274.7744, "ARG_OF_PERICENTER": 352.6854, "MEAN_ANOMALY": 188.0207, "EPHEMERIS_TYPE": 0, "CLASSIFICATION_TYPE": "U", "NORAD_CAT_ID": 34061, "ELEMENT_SET_NO": 999, "REV_AT_EPOCH": 88091, "BSTAR": 0.00069240962, "MEAN_MOTION_DOT": 2.175e-05, "MEAN_MOTION_DDOT": 0}, "tle": {"line1": "1 34061U 93036JY  25340.58012610  .00002175  00000+0  69241-3 0  9991", "line2": "2 34061  74.0392 274.7744 0020278 352.6854 188.0207 14.40335673880916"}}, "geometry": {"type": "Point", "coordinates": [163.77427065953304, -73.02780785725248]}}, {"type": "Feature", "properties": {"norad_id": 34062, "name": "COSMOS 2251 DEB", "group": "cosmos-2251-debris", "lat": -46.886852537664375, "lon": 131.61870352659406, "alt_km": 632.5331571831812, "timestamp": "2025-12-06T22:38:43.122704+00:00", "meta": {"OBJECT_NAME": "COSMOS 2251 DEB", "OBJECT_ID": "1993-036JZ", "EPOCH": "2025-12-06T11:38:31.117632", "MEAN_MOTION": 14.78277554, "ECCENTRICITY": 0.00757746, "INCLINATION": 74.0278, "RA_OF_ASC_NODE": 150.3334, "ARG_OF_PERICENTER": 230.5663, "MEAN_ANOMALY": 160.3485, "EPHEMERIS_TYPE": 0, "CLASSIFICATION_TYPE": "U", "NORAD_CAT_ID": 34062, "ELEMENT_SET_NO": 999, "REV_AT_EPOCH": 88503, "BSTAR": 0.0043825817, "MEAN_MOTION_DOT": 0.00033526, "MEAN_MOTION_DDOT": 0}, "tle": {"line1": "1 34062U 93036JZ  25340.48508238  .00033526  00000+0  43826-2 0  9991", "line2": "2 34062  74.0278 150.3334 0075774 230.5663 160.3485 14.78277554885030"}}, "geometry": {"type": "Point", "coordinates": [131.61870352659406, -46.886852537664375]}}, {"type": "Feature", "properties": {"norad_id": 34064, "name": "COSMOS 2251 DEB", "group": "cosmos-2251-debris", "lat": -16.162908896878353, "lon": 106.3804277819759, "alt_km": 769.1225748559236, "timestamp": "2025-12-06T22:38:43.122714+00:00", "meta": {"OBJECT_NAME": "COSMOS 2251 DEB", "OBJECT_ID": "1993-036KB", "EPOCH": "2025-12-06T07:27:42.110784", "MEAN_MOTION": 14.42301647, "ECCENTRICITY": 0.00218958, "INCLINATION": 74.0331, "RA_OF_ASC_NODE": 282.7937, "ARG_OF_PERICENTER": 350.009, "MEAN_ANOMALY": 163.2469, "EPHEMERIS_TYPE": 0, "CLASSIFICATION_TYPE": "U", "NORAD_CAT_ID": 34064, "ELEMENT_SET_NO": 999, "REV_AT_EPOCH": 88049, "BSTAR": 0.0011222126, "MEAN_MOTION_DOT": 3.69e-05, "MEAN_MOTION_DDOT": 0}, "tle": {"line1": "1 34064U 93036KB  25340.31090406  .00003690  00000+0  11222-2 0  9992", "line2": "2 34064  74.0331 282.7937 0021895 350.0090 163.2469 14.42301647880499"}}, "geometry": {"type": "Point", "coordinates": [106.3804277819759, -16.162908896878353]}}, {"type": "Feature", "properties": {"norad_id": 34065, "name": "COSMOS 2251 DEB", "group": "cosmos-2251-debris", "lat": -57.45520975765894, "lon": -117.8546686134597, "alt_km": 767.5153555972638, "timestamp": "2025-12-06T22:38:43.122724+00:00", "meta": {"OBJECT_NAME": "COSMOS 2251 DEB", "OBJECT_ID": "1993-036KC", "EPOCH": "2025-12-06T13:42:57.166272", "MEAN_MOTION": 14.38051803, "ECCENTRICITY": 0.00160942, "INCLINATION": 74.0356, "RA_OF_ASC_NODE": 269.4818, "ARG_OF_PERICENTER": 8.4493, "MEAN_ANOMALY": 165.1484, "EPHEMERIS_TYPE": 0, "CLASSIFICATION_TYPE": "U", "NORAD_CAT_ID": 34065, "ELEMENT_SET_NO": 999, "REV_AT_EPOCH": 88116, "BSTAR": 0.00032902006, "MEAN_MOTION_DOT": 9.71e-06, "MEAN_MOTION_DDOT": 0}, "tle": {"line1": "1 34065U 93036KC  25340.57149498  .00000971  00000+0  32902-3 0  9995", "line2": "2 34065  74.0356 269.4818 0016094   8.4493 165.1484 14.38051803881167"}}, "geometry": {"type": "Point", "coordinates": [-117.8546686134597, -57.45520975765894]}}, {"type": "Feature", "properties": {"norad_id": 34070, "name": "COSMOS 2251 DEB", "group": "cosmos-2251-debris", "lat": 73.5497500165373, "lon": -128.69057423214477, "alt_km": 643.7802517291993, "timestamp": "2025-12-06T22:38:43.122735+00:00", "meta": {"OBJECT_NAME": "COSMOS 2251 DEB", "OBJECT_ID": "1993-036KH", "EPOCH": "2025-12-06T09:20:32.307648", "MEAN_MOTION": 14.76673148, "ECCENTRICITY": 0.00191507, "INCLINATION": 74.001, "RA_OF_ASC_NODE": 128.7387, "ARG_OF_PERICENTER": 243.5327, "MEAN_ANOMALY": 144.9706, "EPHEMERIS_TYPE": 0, "CLASSIFICATION_TYPE": "U", "NORAD_CAT_ID": 34070, "ELEMENT_SET_NO": 999, "REV_AT_EPOCH": 88517, "BSTAR": 0.0047879234, "MEAN_MOTION_DOT": 0.0003373, "MEAN_MOTION_DDOT": 0}, "tle": {"line1": "1 34070U 93036KH  25340.38926282  .00033730  00000+0  47879-2 0  9991", "line2": "2 34070  74.0010 128.7387 0019150 243.5327 144.9706 14.76673148885173"}}, "geometry": {"type": "Point", "coordinates": [-128.69057423214477, 73.5497500165373]}}, {"type": "Feature", "properties": {"norad_id": 34114, "name": "COSMOS 2251 DEB", "group": "cosmos-2251-debris", "lat": 9.60250515468107, "lon": 57.5846459011129, "alt_km": 681.4288077088886, "timestamp": "2025-12-06T22:38:43.122745+00:00", "meta": {"OBJECT_NAME": "COSMOS 2251 DEB", "OBJECT_ID": "1993-036KK", "EPOCH": "2025-12-06T14:53:09.210336", "MEAN_MOTION": 14.56249304, "ECCENTRICITY": 0.00473853, "INCLINATION": 74.0601, "RA_OF_ASC_NODE": 55.4253, "ARG_OF_PERICENTER": 52.4415, "MEAN_ANOMALY": 63.7652, "EPHEMERIS_TYPE": 0, "CLASSIFICATION_TYPE": "U", "NORAD_CAT_ID": 34114, "ELEMENT_SET_NO": 999, "REV_AT_EPOCH": 87712, "BSTAR": 0.0029530422, "MEAN_MOTION_DOT": 0.00013261, "MEAN_MOTION_DDOT": 0}, "tle": {"line1": "1 34114U 93036KK  25340.62024549  .00013261  00000+0  29530-2 0  9993", "line2": "2 34114  74.0601  55.4253 0047385  52.4415  63.7652 14.56249304877127"}}, "geometry": {"type": "Point", "coordinates": [57.5846459011129, 9.60250515468107]}}, {"type": "Feature", "properties": {"norad_id": 34115, "name": "COSMOS 2251 DEB", "group": "cosmos-2251-debris", "lat": 1.242778567187317, "lon": -106.27480881593708, "alt_km": 629.4393003275991, "timestamp": "2025-12-06T22:38:43.122755+00:00", "meta": {"OBJECT_NAME": "COSMOS 2251 DEB", "OBJECT_ID": "1993-036KL", "EPOCH": "2025-12-06T04:47:10.581792", "MEAN_MOTION": 14.7933224, "ECCENTRICITY": 0.00283316, "INCLINATION": 74.0077, "RA_OF_ASC_NODE": 254.8348, "ARG_OF_PERICENTER": 80.3331, "MEAN_ANOMALY": 280.1044, "EPHEMERIS_TYPE": 0, "CLASSIFICATION_TYPE": "U", "NORAD_CAT_ID": 34115, "ELEMENT_SET_NO": 999, "REV_AT_EPOCH": 89315, "BSTAR": 0.0017417398, "MEAN_MOTION_DOT": 0.0001305, "MEAN_MOTION_DDOT": 0}, "tle": {"line1": "1 34115U 93036KL  25340.19942803  .00013050  00000+0  17417-2 0  9995", "line2": "2 34115  74.0077 254.8348 0028331  80.3331 280.1044 14.79332240893150"}}, "geometry": {"type": "Point", "coordinates": [-106.27480881593708, 1.242778567187317]}}, {"type": "Feature", "properties": {"norad_id": 34116, "name": "COSMOS 2251 DEB", "group": "cosmos-2251-debris", "lat": 22.215092163358936, "lon": 6.99694771938266, "alt_km": 718.8361423711203, "timestamp": "2025-12-06T22:38:43.122766+00:00", "meta": {"OBJECT_NAME": "COSMOS 2251 DEB", "OBJECT_ID": "1993-036KM", "EPOCH": "2025-12-06T15:37:15.569760", "MEAN_MOTION": 14.52925996, "ECCENTRICITY": 0.0012215, "INCLINATION": 74.0399, "RA_OF_ASC_NODE": 194.2606, "ARG_OF_PERICENTER": 270.362, "MEAN_ANOMALY": 156.258, "EPHEMERIS_TYPE": 0, "CLASSIFICATION_TYPE": "U", "NORAD_CAT_ID": 34116, "ELEMENT_SET_NO": 999, "REV_AT_EPOCH": 88398, "BSTAR": 0.001242558, "MEAN_MOTION_DOT": 5.1e-05, "MEAN_MOTION_DDOT": 0}, "tle": {"line1": "1 34116U 93036KM  25340.65087465  .00005100  00000+0  12426-2 0  9993", "line2": "2 34116  74.0399 194.2606 0012215 270.3620 156.2580 14.52925996883983"}}, "geometry": {"type": "Point", "coordinates": [6.99694771938266, 22.215092163358936]}}]}